0 SMAP
1 40376U 15003A   19365.77240118  .00000017  00000-0  12392-4 0  9992
2 40376  98.1228   9.7929 0001689 109.2526 250.8855 14.63364314262555
0 SMAP
1 40376U 15003A   19365.43051883  .00000023  00000-0  13435-4 0  9990
2 40376  98.1228   9.4562 0001665 109.4255 250.7131 14.63364367262509
