<?xml version="1.0" encoding="utf-8"?>
<ndm xmlns:xsi="http://www.w3.org/2001/XMLSchema-instance" xsi:noNamespaceSchemaLocation="http://sanaregistry.org/r/ndmxml/ndmxml-1.0-master.xsd"><omm id="CCSDS_OMM_VERS" version="2.0"><header><COMMENT>GENERATED VIA SPACE-TRACK.ORG API</COMMENT><CREATION_DATE>2019-12-31T14:30:18</CREATION_DATE><ORIGINATOR>18 SPCS</ORIGINATOR></header><body><segment><metadata><OBJECT_NAME>SMAP</OBJECT_NAME><OBJECT_ID>2015-003A</OBJECT_ID><CENTER_NAME>EARTH</CENTER_NAME><REF_FRAME>TEME</REF_FRAME><TIME_SYSTEM>UTC</TIME_SYSTEM><MEAN_ELEMENT_THEORY>SGP4</MEAN_ELEMENT_THEORY></metadata><data><meanElements><EPOCH>2019-12-31T10:19:56.826912</EPOCH><MEAN_MOTION>14.63364367</MEAN_MOTION><ECCENTRICITY>0.00016650</ECCENTRICITY><INCLINATION>98.1228</INCLINATION><RA_OF_ASC_NODE>9.4562</RA_OF_ASC_NODE><ARG_OF_PERICENTER>109.4255</ARG_OF_PERICENTER><MEAN_ANOMALY>250.7131</MEAN_ANOMALY></meanElements><tleParameters><EPHEMERIS_TYPE>0</EPHEMERIS_TYPE><CLASSIFICATION_TYPE>U</CLASSIFICATION_TYPE><NORAD_CAT_ID>40376</NORAD_CAT_ID><ELEMENT_SET_NO>999</ELEMENT_SET_NO><REV_AT_EPOCH>26250</REV_AT_EPOCH><BSTAR>0.00001343500000</BSTAR><MEAN_MOTION_DOT>0.00000023</MEAN_MOTION_DOT><MEAN_MOTION_DDOT>0.0000000000000</MEAN_MOTION_DDOT></tleParameters><userDefinedParameters><USER_DEFINED parameter="SEMIMAJOR_AXIS">7060.468</USER_DEFINED><USER_DEFINED parameter="PERIOD">98.403</USER_DEFINED><USER_DEFINED parameter="APOAPSIS">683.509</USER_DEFINED><USER_DEFINED parameter="PERIAPSIS">681.158</USER_DEFINED><USER_DEFINED parameter="OBJECT_TYPE">PAYLOAD</USER_DEFINED><USER_DEFINED parameter="RCS_SIZE">LARGE</USER_DEFINED><USER_DEFINED parameter="COUNTRY_CODE">US</USER_DEFINED><USER_DEFINED parameter="LAUNCH_DATE">2015-01-31</USER_DEFINED><USER_DEFINED parameter="SITE">AFWTR</USER_DEFINED><USER_DEFINED parameter="DECAY_DATE"/><USER_DEFINED parameter="FILE">2676068</USER_DEFINED><USER_DEFINED parameter="GP_ID">145850030</USER_DEFINED></userDefinedParameters></data></segment></body></omm><omm id="CCSDS_OMM_VERS" version="2.0"><header><COMMENT>GENERATED VIA SPACE-TRACK.ORG API</COMMENT><CREATION_DATE>2019-12-31T22:30:16</CREATION_DATE><ORIGINATOR>18 SPCS</ORIGINATOR></header><body><segment><metadata><OBJECT_NAME>SMAP</OBJECT_NAME><OBJECT_ID>2015-003A</OBJECT_ID><CENTER_NAME>EARTH</CENTER_NAME><REF_FRAME>TEME</REF_FRAME><TIME_SYSTEM>UTC</TIME_SYSTEM><MEAN_ELEMENT_THEORY>SGP4</MEAN_ELEMENT_THEORY></metadata><data><meanElements><EPOCH>2019-12-31T18:32:15.461952</EPOCH><MEAN_MOTION>14.63364314</MEAN_MOTION><ECCENTRICITY>0.00016890</ECCENTRICITY><INCLINATION>98.1228</INCLINATION><RA_OF_ASC_NODE>9.7929</RA_OF_ASC_NODE><ARG_OF_PERICENTER>109.2526</ARG_OF_PERICENTER><MEAN_ANOMALY>250.8855</MEAN_ANOMALY></meanElements><tleParameters><EPHEMERIS_TYPE>0</EPHEMERIS_TYPE><CLASSIFICATION_TYPE>U</CLASSIFICATION_TYPE><NORAD_CAT_ID>40376</NORAD_CAT_ID><ELEMENT_SET_NO>999</ELEMENT_SET_NO><REV_AT_EPOCH>26255</REV_AT_EPOCH><BSTAR>0.00001239200000</BSTAR><MEAN_MOTION_DOT>0.00000017</MEAN_MOTION_DOT><MEAN_MOTION_DDOT>0.0000000000000</MEAN_MOTION_DDOT></tleParameters><userDefinedParameters><USER_DEFINED parameter="SEMIMAJOR_AXIS">7060.468</USER_DEFINED><USER_DEFINED parameter="PERIOD">98.403</USER_DEFINED><USER_DEFINED parameter="APOAPSIS">683.526</USER_DEFINED><USER_DEFINED parameter="PERIAPSIS">681.141</USER_DEFINED><USER_DEFINED parameter="OBJECT_TYPE">PAYLOAD</USER_DEFINED><USER_DEFINED parameter="RCS_SIZE">LARGE</USER_DEFINED><USER_DEFINED parameter="COUNTRY_CODE">US</USER_DEFINED><USER_DEFINED parameter="LAUNCH_DATE">2015-01-31</USER_DEFINED><USER_DEFINED parameter="SITE">AFWTR</USER_DEFINED><USER_DEFINED parameter="DECAY_DATE"/><USER_DEFINED parameter="FILE">2676276</USER_DEFINED><USER_DEFINED parameter="GP_ID">145874105</USER_DEFINED></userDefinedParameters></data></segment></body></omm></ndm>
